[{"OBJECT_NAME":"ONEWEB-0273","OBJECT_ID":"2021-060AA","EPOCH":"2026-03-03T12:04:54.231744","MEAN_MOTION":13.16592943,"ECCENTRICITY":0.00016821,"INCLINATION":87.8999,"RA_OF_ASC_NODE":249.8072,"ARG_OF_PERICENTER":99.5106,"MEAN_ANOMALY":260.6215,"EPHEMERIS_TYPE":0,"CLASSIFICATION_TYPE":"U","NORAD_CAT_ID":48991,"ELEMENT_SET_NO":999,"REV_AT_EPOCH":22568,"BSTAR":0.00019820212,"MEAN_MOTION_DOT":8.9e-7,"MEAN_MOTION_DDOT":0},{"OBJECT_NAME":"ONEWEB-0274","OBJECT_ID":"2021-060AB","EPOCH":"2026-03-03T12:41:22.879392","MEAN_MOTION":13.16593519,"ECCENTRICITY":0.0001262,"INCLINATION":87.8986,"RA_OF_ASC_NODE":249.816,"ARG_OF_PERICENTER":96.6102,"MEAN_ANOMALY":263.5173,"EPHEMERIS_TYPE":0,"CLASSIFICATION_TYPE":"U","NORAD_CAT_ID":48992,"ELEMENT_SET_NO":999,"REV_AT_EPOCH":22572,"BSTAR":0.00010012,"MEAN_MOTION_DOT":5.1e-7,"MEAN_MOTION_DDOT":0},{"OBJECT_NAME":"ONEWEB-0275","OBJECT_ID":"2021-060AC","EPOCH":"2026-03-03T12:25:25.163904","MEAN_MOTION":13.16593516,"ECCENTRICITY":0.00015603,"INCLINATION":87.8998,"RA_OF_ASC_NODE":249.7967,"ARG_OF_PERICENTER":99.6939,"MEAN_ANOMALY":260.4368,"EPHEMERIS_TYPE":0,"CLASSIFICATION_TYPE":"U","NORAD_CAT_ID":48993,"ELEMENT_SET_NO":999,"REV_AT_EPOCH":22565,"BSTAR":0.0002708113,"MEAN_MOTION_DOT":1.16e-6,"MEAN_MOTION_DDOT":0},{"OBJECT_NAME":"ONEWEB-0276","OBJECT_ID":"2021-060AD","EPOCH":"2026-03-03T13:13:18.255072","MEAN_MOTION":13.16593292,"ECCENTRICITY":0.0001804,"INCLINATION":87.8999,"RA_OF_ASC_NODE":249.79,"ARG_OF_PERICENTER":96.4675,"MEAN_ANOMALY":263.6661,"EPHEMERIS_TYPE":0,"CLASSIFICATION_TYPE":"U","NORAD_CAT_ID":48994,"ELEMENT_SET_NO":999,"REV_AT_EPOCH":22567,"BSTAR":-2.9307e-6,"MEAN_MOTION_DOT":1.2e-7,"MEAN_MOTION_DDOT":0},{"OBJECT_NAME":"ONEWEB-0277","OBJECT_ID":"2021-060AE","EPOCH":"2026-03-03T13:31:28.615296","MEAN_MOTION":13.16592294,"ECCENTRICITY":0.0001623,"INCLINATION":87.8989,"RA_OF_ASC_NODE":249.8036,"ARG_OF_PERICENTER":100.4444,"MEAN_ANOMALY":259.687,"EPHEMERIS_TYPE":0,"CLASSIFICATION_TYPE":"U","NORAD_CAT_ID":48995,"ELEMENT_SET_NO":999,"REV_AT_EPOCH":22566,"BSTAR":-0.00088109,"MEAN_MOTION_DOT":-3.24e-6,"MEAN_MOTION_DDOT":0},{"OBJECT_NAME":"ONEWEB-0278","OBJECT_ID":"2021-060AF","EPOCH":"2026-03-03T13:17:51.344736","MEAN_MOTION":13.16592979,"ECCENTRICITY":0.000176,"INCLINATION":87.9001,"RA_OF_ASC_NODE":249.786,"ARG_OF_PERICENTER":88.6367,"MEAN_ANOMALY":271.4965,"EPHEMERIS_TYPE":0,"CLASSIFICATION_TYPE":"U","NORAD_CAT_ID":48996,"ELEMENT_SET_NO":999,"REV_AT_EPOCH":22579,"BSTAR":-8.5061e-5,"MEAN_MOTION_DOT":-2.0e-7,"MEAN_MOTION_DDOT":0},{"OBJECT_NAME":"ONEWEB-0279","OBJECT_ID":"2021-060AG","EPOCH":"2026-03-03T13:29:15.343296","MEAN_MOTION":13.16592606,"ECCENTRICITY":0.0001557,"INCLINATION":87.9001,"RA_OF_ASC_NODE":249.7839,"ARG_OF_PERICENTER":105.4703,"MEAN_ANOMALY":254.66,"EPHEMERIS_TYPE":0,"CLASSIFICATION_TYPE":"U","NORAD_CAT_ID":48997,"ELEMENT_SET_NO":999,"REV_AT_EPOCH":22572,"BSTAR":4.5781e-5,"MEAN_MOTION_DOT":3.0e-7,"MEAN_MOTION_DDOT":0},{"OBJECT_NAME":"ONEWEB-0280","OBJECT_ID":"2021-060AH","EPOCH":"2026-03-03T12:01:29.761824","MEAN_MOTION":13.16594131,"ECCENTRICITY":0.0001966,"INCLINATION":87.9,"RA_OF_ASC_NODE":249.8011,"ARG_OF_PERICENTER":96.2041,"MEAN_ANOMALY":263.9314,"EPHEMERIS_TYPE":0,"CLASSIFICATION_TYPE":"U","NORAD_CAT_ID":48998,"ELEMENT_SET_NO":999,"REV_AT_EPOCH":22565,"BSTAR":0.00032870062,"MEAN_MOTION_DOT":1.39e-6,"MEAN_MOTION_DDOT":0},{"OBJECT_NAME":"ONEWEB-0281","OBJECT_ID":"2021-060AJ","EPOCH":"2026-03-03T19:27:12.319200","MEAN_MOTION":13.1659293,"ECCENTRICITY":0.0001482,"INCLINATION":87.8998,"RA_OF_ASC_NODE":249.7339,"ARG_OF_PERICENTER":93.0688,"MEAN_ANOMALY":267.0612,"EPHEMERIS_TYPE":0,"CLASSIFICATION_TYPE":"U","NORAD_CAT_ID":48999,"ELEMENT_SET_NO":999,"REV_AT_EPOCH":22576,"BSTAR":0.00023782,"MEAN_MOTION_DOT":1.04e-6,"MEAN_MOTION_DDOT":0},{"OBJECT_NAME":"ONEWEB-0282","OBJECT_ID":"2021-060AK","EPOCH":"2026-03-03T12:52:46.668000","MEAN_MOTION":13.1659361,"ECCENTRICITY":0.0001732,"INCLINATION":87.9,"RA_OF_ASC_NODE":249.799,"ARG_OF_PERICENTER":99.0679,"MEAN_ANOMALY":261.0648,"EPHEMERIS_TYPE":0,"CLASSIFICATION_TYPE":"U","NORAD_CAT_ID":49000,"ELEMENT_SET_NO":999,"REV_AT_EPOCH":22570,"BSTAR":1.7286e-5,"MEAN_MOTION_DOT":1.9e-7,"MEAN_MOTION_DDOT":0},{"OBJECT_NAME":"ONEWEB-0283","OBJECT_ID":"2021-060AL","EPOCH":"2026-03-03T12:36:48.961152","MEAN_MOTION":13.16593257,"ECCENTRICITY":0.0001566,"INCLINATION":87.8997,"RA_OF_ASC_NODE":249.8011,"ARG_OF_PERICENTER":99.8612,"MEAN_ANOMALY":260.2696,"EPHEMERIS_TYPE":0,"CLASSIFICATION_TYPE":"U","NORAD_CAT_ID":49001,"ELEMENT_SET_NO":999,"REV_AT_EPOCH":22571,"BSTAR":5.9499e-5,"MEAN_MOTION_DOT":3.6e-7,"MEAN_MOTION_DDOT":0},{"OBJECT_NAME":"ONEWEB-0284","OBJECT_ID":"2021-060AM","EPOCH":"2026-03-03T14:17:08.664288","MEAN_MOTION":13.16593981,"ECCENTRICITY":0.0001952,"INCLINATION":87.9001,"RA_OF_ASC_NODE":249.7786,"ARG_OF_PERICENTER":91.5993,"MEAN_ANOMALY":268.5362,"EPHEMERIS_TYPE":0,"CLASSIFICATION_TYPE":"U","NORAD_CAT_ID":49002,"ELEMENT_SET_NO":999,"REV_AT_EPOCH":22570,"BSTAR":0.00037924,"MEAN_MOTION_DOT":1.58e-6,"MEAN_MOTION_DDOT":0},{"OBJECT_NAME":"ONEWEB-0285","OBJECT_ID":"2021-075A","EPOCH":"2026-03-03T09:29:35.737728","MEAN_MOTION":13.12440471,"ECCENTRICITY":0.00018511,"INCLINATION":87.9,"RA_OF_ASC_NODE":11.6562,"ARG_OF_PERICENTER":83.3655,"MEAN_ANOMALY":276.7685,"EPHEMERIS_TYPE":0,"CLASSIFICATION_TYPE":"U","NORAD_CAT_ID":49075,"ELEMENT_SET_NO":999,"REV_AT_EPOCH":22133,"BSTAR":0.0006587366,"MEAN_MOTION_DOT":2.5e-6,"MEAN_MOTION_DDOT":0},{"OBJECT_NAME":"ONEWEB-0286","OBJECT_ID":"2021-075B","EPOCH":"2026-03-03T09:03:48.341376","MEAN_MOTION":13.12443358,"ECCENTRICITY":0.00017943,"INCLINATION":87.8985,"RA_OF_ASC_NODE":11.6872,"ARG_OF_PERICENTER":73.8787,"MEAN_ANOMALY":286.2539,"EPHEMERIS_TYPE":0,"CLASSIFICATION_TYPE":"U","NORAD_CAT_ID":49076,"ELEMENT_SET_NO":999,"REV_AT_EPOCH":22068,"BSTAR":0.0012650572,"MEAN_MOTION_DOT":4.68e-6,"MEAN_MOTION_DDOT":0},{"OBJECT_NAME":"ONEWEB-0287","OBJECT_ID":"2021-075C","EPOCH":"2026-03-03T09:18:06.130080","MEAN_MOTION":13.17650598,"ECCENTRICITY":0.00019591,"INCLINATION":87.9138,"RA_OF_ASC_NODE":26.8763,"ARG_OF_PERICENTER":68.7006,"MEAN_ANOMALY":291.4334,"EPHEMERIS_TYPE":0,"CLASSIFICATION_TYPE":"U","NORAD_CAT_ID":49077,"ELEMENT_SET_NO":999,"REV_AT_EPOCH":21969,"BSTAR":0.00010316088,"MEAN_MOTION_DOT":5.3e-7,"MEAN_MOTION_DDOT":0},{"OBJECT_NAME":"ONEWEB-0288","OBJECT_ID":"2021-075D","EPOCH":"2026-03-03T08:29:49.966656","MEAN_MOTION":13.12442881,"ECCENTRICITY":0.0001926,"INCLINATION":87.8994,"RA_OF_ASC_NODE":11.659,"ARG_OF_PERICENTER":78.6197,"MEAN_ANOMALY":281.5148,"EPHEMERIS_TYPE":0,"CLASSIFICATION_TYPE":"U","NORAD_CAT_ID":49078,"ELEMENT_SET_NO":999,"REV_AT_EPOCH":22130,"BSTAR":-0.00076599277,"MEAN_MOTION_DOT":-2.63e-6,"MEAN_MOTION_DDOT":0},{"OBJECT_NAME":"ONEWEB-0289","OBJECT_ID":"2021-075E","EPOCH":"2026-03-03T10:13:46.669440","MEAN_MOTION":13.17650957,"ECCENTRICITY":0.00022851,"INCLINATION":87.9144,"RA_OF_ASC_NODE":26.8808,"ARG_OF_PERICENTER":86.5548,"MEAN_ANOMALY":273.5845,"EPHEMERIS_TYPE":0,"CLASSIFICATION_TYPE":"U","NORAD_CAT_ID":49079,"ELEMENT_SET_NO":999,"REV_AT_EPOCH":22027,"BSTAR":4.611421e-5,"MEAN_MOTION_DOT":3.1e-7,"MEAN_MOTION_DDOT":0}]
