ONEWEB-0273             
1 48991U 21060AA  26062.50340546  .00000089  00000+0  19820-3 0  9992
2 48991  87.8999 249.8072 0001682  99.5106 260.6215 13.16592943225680
ONEWEB-0274             
1 48992U 21060AB  26062.52873703  .00000051  00000+0  10012-3 0  9994
2 48992  87.8986 249.8160 0001262  96.6102 263.5173 13.16593519225723
ONEWEB-0275             
1 48993U 21060AC  26062.51765236  .00000116  00000+0  27081-3 0  9991
2 48993  87.8998 249.7967 0001560  99.6939 260.4368 13.16593516225654
ONEWEB-0276             
1 48994U 21060AD  26062.55090573  .00000012  00000+0 -29307-5 0  9992
2 48994  87.8999 249.7900 0001804  96.4675 263.6661 13.16593292225670
ONEWEB-0277             
1 48995U 21060AE  26062.56352564 -.00000324  00000+0 -88109-3 0  9995
2 48995  87.8989 249.8036 0001623 100.4444 259.6870 13.16592294225667
ONEWEB-0278             
1 48996U 21060AF  26062.55406649 -.00000020  00000+0 -85061-4 0  9997
2 48996  87.9001 249.7860 0001760  88.6367 271.4965 13.16592979225792
ONEWEB-0279             
1 48997U 21060AG  26062.56198314  .00000030  00000+0  45781-4 0  9990
2 48997  87.9001 249.7839 0001557 105.4703 254.6600 13.16592606225724
ONEWEB-0280             
1 48998U 21060AH  26062.50103891  .00000139  00000+0  32870-3 0  9995
2 48998  87.9000 249.8011 0001966  96.2041 263.9314 13.16594131225655
ONEWEB-0281             
1 48999U 21060AJ  26062.81055925  .00000104  00000+0  23782-3 0  9998
2 48999  87.8998 249.7339 0001482  93.0688 267.0612 13.16592930225761
ONEWEB-0282             
1 49000U 21060AK  26062.53665125  .00000019  00000+0  17286-4 0  9998
2 49000  87.9000 249.7990 0001732  99.0679 261.0648 13.16593610225700
ONEWEB-0283             
1 49001U 21060AL  26062.52556668  .00000036  00000+0  59499-4 0  9990
2 49001  87.8997 249.8011 0001566  99.8612 260.2696 13.16593257225712
ONEWEB-0284             
1 49002U 21060AM  26062.59523917  .00000158  00000+0  37924-3 0  9992
2 49002  87.9001 249.7786 0001952  91.5993 268.5362 13.16593981225702
ONEWEB-0285             
1 49075U 21075A   26062.39555252  .00000250  00000+0  65874-3 0  9991
2 49075  87.9000  11.6562 0001851  83.3655 276.7685 13.12440471221336
ONEWEB-0286             
1 49076U 21075B   26062.37764284  .00000468  00000+0  12651-2 0  9992
2 49076  87.8985  11.6872 0001794  73.8787 286.2539 13.12443358220686
ONEWEB-0287             
1 49077U 21075C   26062.38757095  .00000053  00000+0  10316-3 0  9993
2 49077  87.9138  26.8763 0001959  68.7006 291.4334 13.17650598219696
ONEWEB-0288             
1 49078U 21075D   26062.35405054 -.00000263  00000+0 -76599-3 0  9996
2 49078  87.8994  11.6590 0001926  78.6197 281.5148 13.12442881221304
ONEWEB-0289             
1 49079U 21075E   26062.42623460  .00000031  00000+0  46114-4 0  9990
2 49079  87.9144  26.8808 0002285  86.5548 273.5845 13.17650957220270
